{
  "type": "FeatureCollection",
  "features": [
    {
      "type": "Feature",
      "properties": { "name": "Russia", "code": "RU", "ipCount": 1847, "alertCount": 1024 },
      "geometry": {
        "type": "Polygon",
        "coordinates": [[[27.5,70.0],[35.0,68.0],[60.0,68.0],[100.0,76.0],[170.0,65.0],[175.0,62.0],[140.0,50.0],[130.0,42.0],[80.0,50.0],[50.0,52.0],[40.0,46.0],[30.0,55.0],[27.5,70.0]]]
      }
    },
    {
      "type": "Feature",
      "properties": { "name": "Germany", "code": "DE", "ipCount": 1420, "alertCount": 412 },
      "geometry": {
        "type": "Polygon",
        "coordinates": [[[6.0,50.5],[8.5,54.9],[14.2,53.8],[15.0,51.0],[12.2,47.5],[9.5,47.3],[7.5,49.0],[6.0,50.5]]]
      }
    },
    {
      "type": "Feature",
      "properties": { "name": "United States", "code": "US", "ipCount": 1290, "alertCount": 280 },
      "geometry": {
        "type": "Polygon",
        "coordinates": [[[-124.7,48.4],[-124.0,32.5],[-117.1,32.5],[-106.5,31.8],[-97.1,26.0],[-80.0,25.0],[-75.0,35.0],[-67.0,44.5],[-71.0,45.0],[-95.0,49.0],[-123.0,49.0],[-124.7,48.4]]]
      }
    },
    {
      "type": "Feature",
      "properties": { "name": "Netherlands", "code": "NL", "ipCount": 1180, "alertCount": 680 },
      "geometry": {
        "type": "Polygon",
        "coordinates": [[[3.3,51.3],[4.8,53.5],[7.2,53.3],[6.9,51.8],[5.0,51.2],[3.3,51.3]]]
      }
    },
    {
      "type": "Feature",
      "properties": { "name": "Switzerland", "code": "CH", "ipCount": 740, "alertCount": 185 },
      "geometry": {
        "type": "Polygon",
        "coordinates": [[[6.0,46.2],[7.5,47.5],[9.5,47.5],[10.5,46.5],[9.0,45.8],[6.0,46.2]]]
      }
    },
    {
      "type": "Feature",
      "properties": { "name": "China", "code": "CN", "ipCount": 690, "alertCount": 430 },
      "geometry": {
        "type": "Polygon",
        "coordinates": [[[73.5,39.0],[87.0,49.0],[120.0,53.0],[135.0,48.0],[122.0,30.0],[114.0,22.0],[108.0,21.5],[97.0,28.0],[80.0,35.0],[73.5,39.0]]]
      }
    },
    {
      "type": "Feature",
      "properties": { "name": "United Kingdom", "code": "GB", "ipCount": 580, "alertCount": 140 },
      "geometry": {
        "type": "Polygon",
        "coordinates": [[[-5.7,50.0],[1.7,52.5],[-0.5,54.5],[-2.0,58.6],[-5.0,58.6],[-5.0,55.0],[-3.0,51.5],[-5.7,50.0]]]
      }
    },
    {
      "type": "Feature",
      "properties": { "name": "Iceland", "code": "IS", "ipCount": 420, "alertCount": 245 },
      "geometry": {
        "type": "Polygon",
        "coordinates": [[[-24.5,65.0],[-22.0,66.5],[-13.5,65.0],[-14.5,64.0],[-19.0,63.4],[-24.5,65.0]]]
      }
    },
    {
      "type": "Feature",
      "properties": { "name": "Cyprus", "code": "CY", "ipCount": 198, "alertCount": 64 },
      "geometry": {
        "type": "Polygon",
        "coordinates": [[[32.3,34.7],[33.9,35.6],[34.6,35.7],[33.8,34.9],[32.3,34.7]]]
      }
    },
    {
      "type": "Feature",
      "properties": { "name": "Lithuania", "code": "LT", "ipCount": 260, "alertCount": 92 },
      "geometry": {
        "type": "Polygon",
        "coordinates": [[[21.0,55.3],[22.0,56.4],[26.8,55.8],[25.8,54.0],[22.7,54.3],[21.0,55.3]]]
      }
    },
    {
      "type": "Feature",
      "properties": { "name": "Luxembourg", "code": "LU", "ipCount": 310, "alertCount": 105 },
      "geometry": {
        "type": "Polygon",
        "coordinates": [[[5.7,49.5],[6.5,49.5],[6.5,50.2],[5.8,50.1],[5.7,49.5]]]
      }
    }
  ]
}
